{"type": "FeatureCollection", "features": [ {"type": "Feature", "properties": {"norad_id": 34571, "name": "COSMOS 2251 DEB", "group": "cosmos-2251-debris", "lat": -12.062091730546324, "lon": 158.9313456464233, "alt_km": 774.0821623653401, "timestamp": "2025-12-23T09:49:07.477606+00:00", "meta": {"OBJECT_NAME": "COSMOS 2251 DEB", "OBJECT_ID": "1993-036VH", "EPOCH": "2025-12-21T21:25:20.768736", "MEAN_MOTION": 14.4895116, "ECCENTRICITY": 0.00652122, "INCLINATION": 74.039, "RA_OF_ASC_NODE": 165.2791, "ARG_OF_PERICENTER": 198.2553, "MEAN_ANOMALY": 161.6266, "EPHEMERIS_TYPE": 0, "CLASSIFICATION_TYPE": "U", "NORAD_CAT_ID": 34571, "ELEMENT_SET_NO": 999, "REV_AT_EPOCH": 87426, "BSTAR": 0.0025690074, "MEAN_MOTION_DOT": 9.985e-05, "MEAN_MOTION_DDOT": 0}, "tle": {"line1": "1 34571U 93036VH  25355.89260149  .00009985  00000+0  25690-2 0  9994", "line2": "2 34571  74.0390 165.2791 0065212 198.2553 161.6266 14.48951160874269"}}, "geometry": {"type": "Point", "coordinates": [158.9313456464233, -12.062091730546324]}}, {"type": "Feature", "properties": {"norad_id": 34572, "name": "COSMOS 2251 DEB", "group": "cosmos-2251-debris", "lat": -69.72990159440262, "lon": -33.638471866112035, "alt_km": 731.6755290867168, "timestamp": "2025-12-23T09:49:07.477616+00:00", "meta": {"OBJECT_NAME": "COSMOS 2251 DEB", "OBJECT_ID": "1993-036VJ", "EPOCH": "2025-12-22T08:04:06.005568", "MEAN_MOTION": 14.50188694, "ECCENTRICITY": 0.00616659, "INCLINATION": 74.0115, "RA_OF_ASC_NODE": 97.4527, "ARG_OF_PERICENTER": 169.5509, "MEAN_ANOMALY": 247.8934, "EPHEMERIS_TYPE": 0, "CLASSIFICATION_TYPE": "U", "NORAD_CAT_ID": 34572, "ELEMENT_SET_NO": 999, "REV_AT_EPOCH": 87517, "BSTAR": 0.0026494819, "MEAN_MOTION_DOT": 0.00010544, "MEAN_MOTION_DDOT": 0}, "tle": {"line1": "1 34572U 93036VJ  25356.33618062  .00010544  00000+0  26495-2 0  9993", "line2": "2 34572  74.0115  97.4527 0061665 169.5509 247.8934 14.50188694875175"}}, "geometry": {"type": "Point", "coordinates": [-33.638471866112035, -69.72990159440262]}}, {"type": "Feature", "properties": {"norad_id": 34574, "name": "COSMOS 2251 DEB", "group": "cosmos-2251-debris", "lat": -31.031150956794914, "lon": -147.63955046182244, "alt_km": 711.3082768430431, "timestamp": "2025-12-23T09:49:07.477626+00:00", "meta": {"OBJECT_NAME": "COSMOS 2251 DEB", "OBJECT_ID": "1993-036VL", "EPOCH": "2025-12-22T03:43:37.953696", "MEAN_MOTION": 14.70698881, "ECCENTRICITY": 0.00671818, "INCLINATION": 74.0679, "RA_OF_ASC_NODE": 24.8931, "ARG_OF_PERICENTER": 42.8565, "MEAN_ANOMALY": 13.7462, "EPHEMERIS_TYPE": 0, "CLASSIFICATION_TYPE": "U", "NORAD_CAT_ID": 34574, "ELEMENT_SET_NO": 999, "REV_AT_EPOCH": 88917, "BSTAR": 0.00094180568, "MEAN_MOTION_DOT": 5.915e-05, "MEAN_MOTION_DDOT": 0}, "tle": {"line1": "1 34574U 93036VL  25356.15530039  .00005915  00000+0  94181-3 0  9996", "line2": "2 34574  74.0679  24.8931 0067181  42.8565  13.7462 14.70698881889176"}}, "geometry": {"type": "Point", "coordinates": [-147.63955046182244, -31.031150956794914]}}, {"type": "Feature", "properties": {"norad_id": 34576, "name": "COSMOS 2251 DEB", "group": "cosmos-2251-debris", "lat": -39.46173679961476, "lon": 104.35337261901023, "alt_km": 711.2544137274472, "timestamp": "2025-12-23T09:49:07.477636+00:00", "meta": {"OBJECT_NAME": "COSMOS 2251 DEB", "OBJECT_ID": "1993-036VN", "EPOCH": "2025-12-22T07:44:16.997280", "MEAN_MOTION": 14.55488291, "ECCENTRICITY": 0.00082401, "INCLINATION": 74.0347, "RA_OF_ASC_NODE": 120.0424, "ARG_OF_PERICENTER": 257.8353, "MEAN_ANOMALY": 129.0853, "EPHEMERIS_TYPE": 0, "CLASSIFICATION_TYPE": "U", "NORAD_CAT_ID": 34576, "ELEMENT_SET_NO": 999, "REV_AT_EPOCH": 88606, "BSTAR": 0.00083691505, "MEAN_MOTION_DOT": 3.617e-05, "MEAN_MOTION_DDOT": 0}, "tle": {"line1": "1 34576U 93036VN  25356.32241895  .00003617  00000+0  83692-3 0  9998", "line2": "2 34576  74.0347 120.0424 0008240 257.8353 129.0853 14.55488291886065"}}, "geometry": {"type": "Point", "coordinates": [104.35337261901023, -39.46173679961476]}}, {"type": "Feature", "properties": {"norad_id": 34579, "name": "COSMOS 2251 DEB", "group": "cosmos-2251-debris", "lat": 31.108344759895832, "lon": 14.093135463055697, "alt_km": 749.6664927648189, "timestamp": "2025-12-23T09:49:07.477647+00:00", "meta": {"OBJECT_NAME": "COSMOS 2251 DEB", "OBJECT_ID": "1993-036VR", "EPOCH": "2025-12-22T18:45:53.200800", "MEAN_MOTION": 14.45333715, "ECCENTRICITY": 0.00275078, "INCLINATION": 74.0515, "RA_OF_ASC_NODE": 205.1972, "ARG_OF_PERICENTER": 272.3481, "MEAN_ANOMALY": 212.941, "EPHEMERIS_TYPE": 0, "CLASSIFICATION_TYPE": "U", "NORAD_CAT_ID": 34579, "ELEMENT_SET_NO": 999, "REV_AT_EPOCH": 88319, "BSTAR": 0.00031216852, "MEAN_MOTION_DOT": 1.075e-05, "MEAN_MOTION_DDOT": 0}, "tle": {"line1": "1 34579U 93036VR  25356.78186575  .00001075  00000+0  31217-3 0  9996", "line2": "2 34579  74.0515 205.1972 0027507 272.3481 212.9410 14.45333715883190"}}, "geometry": {"type": "Point", "coordinates": [14.093135463055697, 31.108344759895832]}}, {"type": "Feature", "properties": {"norad_id": 34582, "name": "COSMOS 2251 DEB", "group": "cosmos-2251-debris", "lat": 9.852457502052332, "lon": -104.6116517833175, "alt_km": 714.6280778260416, "timestamp": "2025-12-23T09:49:07.477657+00:00", "meta": {"OBJECT_NAME": "COSMOS 2251 DEB", "OBJECT_ID": "1993-036VU", "EPOCH": "2025-12-22T17:08:14.927424", "MEAN_MOTION": 14.43373223, "ECCENTRICITY": 0.0048415, "INCLINATION": 74.0196, "RA_OF_ASC_NODE": 253.8278, "ARG_OF_PERICENTER": 1.8359, "MEAN_ANOMALY": 358.2965, "EPHEMERIS_TYPE": 0, "CLASSIFICATION_TYPE": "U", "NORAD_CAT_ID": 34582, "ELEMENT_SET_NO": 999, "REV_AT_EPOCH": 88091, "BSTAR": 0.00069321765, "MEAN_MOTION_DOT": 2.346e-05, "MEAN_MOTION_DDOT": 0}, "tle": {"line1": "1 34582U 93036VU  25356.71406166  .00002346  00000+0  69322-3 0  9994", "line2": "2 34582  74.0196 253.8278 0048415   1.8359 358.2965 14.43373223880910"}}, "geometry": {"type": "Point", "coordinates": [-104.6116517833175, 9.852457502052332]}}, {"type": "Feature", "properties": {"norad_id": 34588, "name": "COSMOS 2251 DEB", "group": "cosmos-2251-debris", "lat": 14.179560382297513, "lon": -107.36876614938004, "alt_km": 748.7101239498752, "timestamp": "2025-12-23T09:49:07.477667+00:00", "meta": {"OBJECT_NAME": "COSMOS 2251 DEB", "OBJECT_ID": "1993-036WA", "EPOCH": "2025-12-22T20:46:45.349824", "MEAN_MOTION": 14.420499, "ECCENTRICITY": 0.00192987, "INCLINATION": 74.0427, "RA_OF_ASC_NODE": 249.492, "ARG_OF_PERICENTER": 301.1565, "MEAN_ANOMALY": 134.1031, "EPHEMERIS_TYPE": 0, "CLASSIFICATION_TYPE": "U", "NORAD_CAT_ID": 34588, "ELEMENT_SET_NO": 999, "REV_AT_EPOCH": 88096, "BSTAR": 0.00038375167, "MEAN_MOTION_DOT": 1.236e-05, "MEAN_MOTION_DDOT": 0}, "tle": {"line1": "1 34588U 93036WA  25356.86580266  .00001236  00000+0  38375-3 0  9991", "line2": "2 34588  74.0427 249.4920 0019298 301.1565 134.1031 14.42049900880961"}}, "geometry": {"type": "Point", "coordinates": [-107.36876614938004, 14.179560382297513]}}, {"type": "Feature", "properties": {"norad_id": 34589, "name": "COSMOS 2251 DEB", "group": "cosmos-2251-debris", "lat": -45.04400345137273, "lon": -125.36330548028279, "alt_km": 1013.1290699735928, "timestamp": "2025-12-23T09:49:07.477677+00:00", "meta": {"OBJECT_NAME": "COSMOS 2251 DEB", "OBJECT_ID": "1993-036WB", "EPOCH": "2025-12-22T21:28:19.587360", "MEAN_MOTION": 13.8606442, "ECCENTRICITY": 0.02523114, "INCLINATION": 73.9251, "RA_OF_ASC_NODE": 38.7279, "ARG_OF_PERICENTER": 340.0599, "MEAN_ANOMALY": 203.9876, "EPHEMERIS_TYPE": 0, "CLASSIFICATION_TYPE": "U", "NORAD_CAT_ID": 34589, "ELEMENT_SET_NO": 999, "REV_AT_EPOCH": 84852, "BSTAR": 0.00040696918, "MEAN_MOTION_DOT": 5.77e-06, "MEAN_MOTION_DDOT": 0}, "tle": {"line1": "1 34589U 93036WB  25356.89467115  .00000577  00000+0  40697-3 0  9999", "line2": "2 34589  73.9251  38.7279 0252311 340.0599 203.9876 13.86064420848524"}}, "geometry": {"type": "Point", "coordinates": [-125.36330548028279, -45.04400345137273]}}, {"type": "Feature", "properties": {"norad_id": 34590, "name": "COSMOS 2251 DEB", "group": "cosmos-2251-debris", "lat": -26.181099525506518, "lon": -65.7181536726002, "alt_km": 720.0250356298648, "timestamp": "2025-12-23T09:49:07.477687+00:00", "meta": {"OBJECT_NAME": "COSMOS 2251 DEB", "OBJECT_ID": "1993-036WC", "EPOCH": "2025-12-22T06:27:48.696768", "MEAN_MOTION": 14.54836629, "ECCENTRICITY": 0.00680342, "INCLINATION": 74.0443, "RA_OF_ASC_NODE": 304.5231, "ARG_OF_PERICENTER": 71.336, "MEAN_ANOMALY": 55.0668, "EPHEMERIS_TYPE": 0, "CLASSIFICATION_TYPE": "U", "NORAD_CAT_ID": 34590, "ELEMENT_SET_NO": 999, "REV_AT_EPOCH": 89259, "BSTAR": 0.0001329784, "MEAN_MOTION_DOT": 5.59e-06, "MEAN_MOTION_DDOT": 0}, "tle": {"line1": "1 34590U 93036WC  25356.26931362  .00000559  00000+0  13298-3 0  9999", "line2": "2 34590  74.0443 304.5231 0068034  71.3360  55.0668 14.54836629892595"}}, "geometry": {"type": "Point", "coordinates": [-65.7181536726002, -26.181099525506518]}}, {"type": "Feature", "properties": {"norad_id": 34609, "name": "COSMOS 2251 DEB", "group": "cosmos-2251-debris", "lat": -72.86455948237452, "lon": 15.953466132654336, "alt_km": 734.5814401087409, "timestamp": "2025-12-23T09:49:07.477697+00:00", "meta": {"OBJECT_NAME": "COSMOS 2251 DEB", "OBJECT_ID": "1993-036WE", "EPOCH": "2025-12-22T12:18:42.095808", "MEAN_MOTION": 14.21825611, "ECCENTRICITY": 0.01456888, "INCLINATION": 73.7327, "RA_OF_ASC_NODE": 88.8594, "ARG_OF_PERICENTER": 306.8419, "MEAN_ANOMALY": 64.3001, "EPHEMERIS_TYPE": 0, "CLASSIFICATION_TYPE": "U", "NORAD_CAT_ID": 34609, "ELEMENT_SET_NO": 999, "REV_AT_EPOCH": 86771, "BSTAR": 0.00071152645, "MEAN_MOTION_DOT": 1.717e-05, "MEAN_MOTION_DDOT": 0}, "tle": {"line1": "1 34609U 93036WE  25356.51298722  .00001717  00000+0  71153-3 0  9995", "line2": "2 34609  73.7327  88.8594 0145688 306.8419  64.3001 14.21825611867712"}}, "geometry": {"type": "Point", "coordinates": [15.953466132654336, -72.86455948237452]}}]}